STARLINK-5684           
1 55453U 23015E   26068.11068977  .00083119  00000+0  59789-2 0  9995
2 55453  43.0044 329.4179 0001749 264.1841  95.8802 15.03263735170668
RAISE-4                 
1 67073U 25297B   26068.97636248  .00005682  00000+0  37087-3 0  9993
2 67073  97.4953 219.2703 0012713  22.7159 337.4629 15.08174958 12933
